NORAD_CAT_ID,OBJECT_NAME,OBJECT_TYPE,EPOCH,MEAN_MOTION,ECCENTRICITY,INCLINATION,RA_OF_ASC_NODE,ARG_OF_PERICENTER,MEAN_ANOMALY,BSTAR,MEAN_MOTION_DOT,MEAN_MOTION_DDOT,TLE_LINE0,TLE_LINE1,TLE_LINE2,SEMIMAJOR_AXIS,PERIOD,APOGEE,PERIGEE,DECAYED
55673.0,STARLINK-5463,PAYLOAD,2023-03-15 03:30:01,15.69917441,0.0002614,70.0013,78.574,251.8698,108.2213,2.011e-05,2.205e-05,0.0,0 STARLINK-5463,1 55673U 23021AX  23074.14584629  .00002205  00000-0  20110-4 0  9996,2 55673  70.0013  78.5740 0002614 251.8698 108.2213 15.69917441  4527,6737.27,91.725,360.896,357.374,0.0
55673.0,STARLINK-5463,PAYLOAD,2023-03-15 12:40:31,15.69927827,0.0002953,70.0012,77.4984,259.7604,100.3259,2.1523e-05,2.376e-05,0.0,0 STARLINK-5463,1 55673U 23021AX  23074.52814166  .00002376  00000-0  21523-4 0  9998,2 55673  70.0012  77.4984 0002953 259.7604 100.3259 15.69927827  4896,6737.24,91.724,361.095,357.116,0.0
55673.0,STARLINK-5463,PAYLOAD,2023-03-16 11:36:47,15.69934018,0.0003163,70.0003,74.8109,256.7741,103.3102,-1.6925e-05,-2.248e-05,0.0,0 STARLINK-5463,1 55673U 23021AX  23075.48388670 -.00002248  00000-0 -16925-4 0  9990,2 55673  70.0003  74.8109 0003163 256.7741 103.3102 15.69934018  5047,6737.223,91.724,361.219,356.957,0.0
55673.0,STARLINK-5463,PAYLOAD,2023-03-16 23:50:49,15.6992547,0.0002934,70.0019,73.3798,246.5127,113.576,1.0067e-05,9.98e-06,0.0,0 STARLINK-5463,1 55673U 23021AX  23075.99362816  .00000998  00000-0  10067-4 0  9999,2 55673  70.0019  73.3798 0002934 246.5127 113.5760 15.69925470  4811,6737.247,91.724,361.089,357.136,0.0
55673.0,STARLINK-5463,PAYLOAD,2023-03-17 12:04:50,15.69930056,0.0003084,69.9999,71.9442,256.7537,103.3315,3.709e-05,4.25e-05,0.0,0 STARLINK-5463,1 55673U 23021AX  23076.50336028  .00004250  00000-0  37090-4 0  9993,2 55673  69.9999  71.9442 0003084 256.7537 103.3315 15.69930056  5203,6737.234,91.724,361.177,357.021,0.0
55673.0,STARLINK-5463,PAYLOAD,2023-03-17 16:40:06,15.69919331,0.0003164,70.0005,71.4082,261.5796,98.5041,2.095e-05,2.307e-05,0.0,0 STARLINK-5463,1 55673U 23021AX  23076.69451457  .00002307  00000-0  20950-4 0  9995,2 55673  70.0005  71.4082 0003164 261.5796  98.5041 15.69919331  4921,6737.265,91.724,361.261,356.998,0.0
55673.0,STARLINK-5463,PAYLOAD,2023-03-18 11:01:07,15.69932739,0.0003392,70.0013,69.2585,261.0664,99.0148,3.4325e-05,3.918e-05,0.0,0 STARLINK-5463,1 55673U 23021AX  23077.45910898  .00003918  00000-0  34325-4 0  9999,2 55673  70.0013  69.2585 0003392 261.0664  99.0148 15.69932739  5040,6737.226,91.724,361.377,356.806,0.0
55673.0,STARLINK-5463,PAYLOAD,2023-03-18 21:43:23,15.69927409,0.0003212,70.0017,68.0045,267.0011,93.0817,7.4627e-06,6.85e-06,0.0,0 STARLINK-5463,1 55673U 23021AX  23077.90512759  .00000685  00000-0  74627-5 0  9991,2 55673  70.0017  68.0045 0003212 267.0011  93.0817 15.69927409  5422,6737.242,91.724,361.271,356.943,0.0
55673.0,STARLINK-5463,PAYLOAD,2023-03-19 05:22:08,15.69932491,0.0003435,70.0006,67.1087,260.8584,99.2223,2.5019e-05,2.798e-05,0.0,0 STARLINK-5463,1 55673U 23021AX  23078.22370893  .00002798  00000-0  25019-4 0  9995,2 55673  70.0006  67.1087 0003435 260.8584  99.2223 15.69932491  5166,6737.227,91.724,361.406,356.778,0.0
55673.0,STARLINK-5463,PAYLOAD,2023-03-19 08:25:38,15.69930618,0.0003463,70.0003,66.7497,260.7687,99.3117,2.2138e-05,2.451e-05,0.0,0 STARLINK-5463,1 55673U 23021AX  23078.35114222  .00002451  00000-0  22138-4 0  9996,2 55673  70.0003  66.7497 0003463 260.7687  99.3117 15.69930618  5495,6737.233,91.724,361.431,356.764,0.0
55673.0,STARLINK-5463,PAYLOAD,2023-03-19 16:04:24,15.69920601,0.0003265,70.0008,65.8545,266.82,93.2622,1.6338e-06,-1.6e-07,0.0,0 STARLINK-5463,1 55673U 23021AX  23078.66973081 -.00000016  00000-0  16338-5 0  9998,2 55673  70.0008  65.8545 0003265 266.8200  93.2622 15.69920601  5239,6737.261,91.724,361.326,356.926,0.0
55673.0,STARLINK-5463,PAYLOAD,2023-03-19 22:11:25,15.69925917,0.0003425,70.001,65.1378,267.1621,92.9183,2.0542e-05,2.258e-05,0.0,0 STARLINK-5463,1 55673U 23021AX  23078.92459653  .00002258  00000-0  20542-4 0  9991,2 55673  70.0010  65.1378 0003425 267.1621  92.9183 15.69925917  5589,6737.246,91.724,361.418,356.803,0.0
55673.0,STARLINK-5463,PAYLOAD,2023-03-20 05:50:10,15.69940812,0.0003265,70.0008,64.242,265.4407,94.6415,6.3257e-05,7.405e-05,0.0,0 STARLINK-5463,1 55673U 23021AX  23079.24317474  .00007405  00000-0  63257-4 0  9990,2 55673  70.0008  64.2420 0003265 265.4407  94.6415 15.69940812  5329,6737.203,91.723,361.268,356.869,0.0
55673.0,STARLINK-5463,PAYLOAD,2023-03-20 10:25:26,15.69918733,0.0002959,70.0006,63.7034,268.9968,91.0889,-6.8816e-06,-1.04e-05,0.0,0 STARLINK-5463,1 55673U 23021AX  23079.43433105 -.00001040  00000-0 -68816-5 0  9999,2 55673  70.0006  63.7034 0002959 268.9968  91.0889 15.69918733  5357,6737.267,91.724,361.125,357.138,0.0
55673.0,STARLINK-5463,PAYLOAD,2023-03-20 16:32:26,15.69920306,0.0002996,70.0006,62.9872,267.36,92.7253,4.7729e-06,3.61e-06,0.0,0 STARLINK-5463,1 55673U 23021AX  23079.68919928  .00000361  00000-0  47729-5 0  9991,2 55673  70.0006  62.9872 0002996 267.3600  92.7253 15.69920306  5706,6737.262,91.724,361.145,357.109,0.0
55673.0,STARLINK-5463,PAYLOAD,2023-03-21 07:49:57,15.69937961,0.0003381,70.0005,61.1958,266.6524,93.4285,6.7039e-05,7.86e-05,0.0,0 STARLINK-5463,1 55673U 23021AX  23080.32635979  .00007860  00000-0  67039-4 0  9991,2 55673  70.0005  61.1958 0003381 266.6524  93.4285 15.69937961  5491,6737.211,91.723,361.354,356.799,0.0
55673.0,STARLINK-5463,PAYLOAD,2023-03-21 10:53:28,15.69912001,0.0002995,70.0007,60.8381,275.0717,85.0137,-2.2484e-05,-2.913e-05,0.0,0 STARLINK-5463,1 55673U 23021AX  23080.45380148 -.00002913  00000-0 -22484-4 0  9991,2 55673  70.0007  60.8381 0002995 275.0717  85.0137 15.69912001  5511,6737.286,91.725,361.169,357.133,0.0
55673.0,STARLINK-5463,PAYLOAD,2023-03-22 02:10:59,15.69926282,0.0003585,70.0013,59.0465,277.1604,82.9184,6.2155e-05,7.268e-05,0.0,0 STARLINK-5463,1 55673U 23021AX  23081.09096660  .00007268  00000-0  62155-4 0  9990,2 55673  70.0013  59.0465 0003585 277.1604  82.9184 15.69926282  5610,6737.245,91.724,361.525,356.695,0.0
55673.0,STARLINK-5463,PAYLOAD,2023-03-22 15:56:45,15.69934775,0.0002328,70.0023,57.4344,275.4903,84.6027,9.7027e-05,0.00011474,0.0,0 STARLINK-5463,1 55673U 23021AX  23081.66441856  .00011474  00000-0  97027-4 0  9994,2 55673  70.0023  57.4344 0002328 275.4903  84.6027 15.69934775  6012,6737.221,91.724,360.654,357.517,0.0
55673.0,STARLINK-5463,PAYLOAD,2023-03-23 08:46:01,15.69923356,0.0003361,70.002,55.4645,269.5933,90.4877,1.0158e-05,1.009e-05,0.0,0 STARLINK-5463,1 55673U 23021AX  23082.36530046  .00001009  00000-0  10158-4 0  9995,2 55673  70.0020  55.4645 0003361 269.5933  90.4877 15.69923356  5814,6737.253,91.724,361.383,356.854,0.0
55673.0,STARLINK-5463,PAYLOAD,2023-03-23 22:31:47,15.69939961,0.0003652,70.0017,53.8531,273.3039,86.7739,5.1638e-05,6.005e-05,0.0,0 STARLINK-5463,1 55673U 23021AX  23082.93874440  .00006005  00000-0  51638-4 0  9996,2 55673  70.0017  53.8531 0003652 273.3039  86.7739 15.69939961  6218,6737.206,91.723,361.531,356.61,0.0
55673.0,STARLINK-5463,PAYLOAD,2023-03-24 04:38:47,15.69950217,0.0003257,70.0022,53.1374,258.571,101.512,8.2451e-05,9.723e-05,0.0,0 STARLINK-5463,1 55673U 23021AX  23083.19360765  .00009723  00000-0  82451-4 0  9992,2 55673  70.0022  53.1374 0003257 258.5710 101.5120 15.69950217  5940,6737.176,91.723,361.236,356.847,0.0
55673.0,STARLINK-5463,PAYLOAD,2023-03-24 07:42:18,15.69920271,0.0002494,70.0023,52.7787,258.5784,101.5132,-3.6209e-06,-6.47e-06,0.0,0 STARLINK-5463,1 55673U 23021AX  23083.32105225 -.00000647  00000-0 -36209-5 0  9994,2 55673  70.0023  52.7787 0002494 258.5784 101.5132 15.69920271  5969,6737.262,91.724,360.807,357.447,0.0
55673.0,STARLINK-5463,PAYLOAD,2023-03-24 15:21:04,15.69916226,0.0003022,70.0013,51.8811,272.7056,87.3794,-1.5255e-05,-2.046e-05,0.0,0 STARLINK-5463,1 55673U 23021AX  23083.63963597 -.00002046  00000-0 -15255-4 0  9994,2 55673  70.0013  51.8811 0003022 272.7056  87.3794 15.69916226  6325,6737.274,91.725,361.175,357.103,0.0
55673.0,STARLINK-5463,PAYLOAD,2023-03-25 00:31:36,15.69872446,0.0003456,70.0026,50.8083,270.7723,89.3077,-0.00014335,-0.00017377,0.0,0 STARLINK-5463,1 55673U 23021AX  23084.02195223 -.00017377  00000-0 -14335-3 0  9991,2 55673  70.0026  50.8083 0003456 270.7723  89.3077 15.69872446  6072,6737.399,91.727,361.592,356.935,0.0
55673.0,STARLINK-5463,PAYLOAD,2023-03-25 08:10:22,15.69893057,0.0003253,70.0026,49.9123,242.3427,117.7438,-3.5587e-05,-4.484e-05,0.0,0 STARLINK-5463,1 55673U 23021AX  23084.34053689 -.00004484  00000-0 -35587-4 0  9993,2 55673  70.0026  49.9123 0003253 242.3427 117.7438 15.69893057  6121,6737.34,91.726,361.397,357.013,0.0
55673.0,STARLINK-5463,PAYLOAD,2023-03-25 21:56:07,15.6996015,0.000213,70.0039,48.3014,267.1903,92.9049,0.0002307,0.00027655,0.0,0 STARLINK-5463,1 55673U 23021AX  23084.91397574  .00027655  00000-0  23070-3 0  9996,2 55673  70.0039  48.3014 0002130 267.1903  92.9049 15.69960150  6529,6737.148,91.722,360.448,357.578,0.0
55673.0,STARLINK-5463,PAYLOAD,2023-03-26 04:03:08,15.69947822,0.0002492,70.0031,47.5853,252.6549,107.4374,0.00010281,0.00012178,0.0,0 STARLINK-5463,1 55673U 23021AX  23085.16884457  .00012178  00000-0  10281-3 0  9999,2 55673  70.0031  47.5853 0002492 252.6549 107.4374 15.69947822  6253,6737.183,91.723,360.727,357.369,0.0
55673.0,STARLINK-5463,PAYLOAD,2023-03-26 07:06:38,15.6994495,0.00032,70.0019,47.225,264.4436,95.6395,4.7551e-05,5.513e-05,0.0,0 STARLINK-5463,1 55673U 23021AX  23085.29627652  .00005513  00000-0  47551-4 0  9991,2 55673  70.0019  47.2250 0003200 264.4436  95.6395 15.69944950  6273,6737.191,91.723,361.212,356.901,0.0
55673.0,STARLINK-5463,PAYLOAD,2023-03-26 22:24:08,15.69941255,0.0003189,70.0019,45.4341,270.8438,89.2392,-0.00010279,-0.00012562,0.0,0 STARLINK-5463,1 55673U 23021AX  23085.93343597 -.00012562  00000-0 -10279-3 0  9995,2 55673  70.0019  45.4341 0003189 270.8438  89.2392 15.69941255  6689,6737.202,91.723,361.216,356.919,0.0
